H2SAT (HEINRICH HERTZ)  
1 57213U 23093A   25202.58654955  .00000020  00000+0  00000+0 0  9993
2 57213   0.0153  99.9734 0001470 128.9109 344.9499  1.00271814  7601
SYRACUSE 4B             
1 57214U 23093B   25201.91104564 -.00000055  00000+0  00000+0 0  9995
2 57214   0.0026 125.5849 0000478 106.8923  27.8736  1.00272495  3636
JUPITER 3 (ECHOSTAR 24) 
1 57479U 23108A   25201.43541908 -.00000148  00000+0  00000+0 0  9992
2 57479   0.0163  52.8954 0001536  68.0520 239.0581  1.00270734  7316
GALAXY 37 (G-37)        
1 57493U 23112A   25202.54697447  .00000045  00000+0  00000+0 0  9991
2 57493   0.0122  35.4571 0001826  90.5425 243.4562  1.00271403  7227
LUDI TANCE-4 01A        
1 57624U 23120A   25202.50109442 -.00000170  00000+0  00000+0 0  9995
2 57624  15.3555 202.1108 0000496 324.5905  42.7122  1.00266690  7231
TJS-10                  
1 58204U 23169A   25202.75681101 -.00000003  00000+0  00000+0 0  9992
2 58204   1.6886  84.5807 0001947 137.3432 163.2751  1.00272970  6364
ZHONGXING-6E            
1 58253U 23172A   25202.64632606 -.00000365  00000+0  00000+0 0  9995
2 58253   0.0292  90.8466 0002691 221.7595 335.2117  1.00268208  6342
YAOGAN-41               
1 58582U 23197A   25202.64061933 -.00000360  00000+0  00000+0 0  9991
2 58582   3.7653 309.2629 0016576 190.8619 153.1909  1.00276633  6006
OVZON-3                 
1 58698U 24003A   25202.42387038  .00000048  00000+0  00000+0 0  9991
2 58698   0.0183  67.7861 0000273 184.7913 259.1464  1.00272201  4123
INSAT-3DS               
1 58990U 24033A   25202.57104063 -.00000159  00000+0  00000+0 0  9994
2 58990   0.0776 261.5225 0001121 242.7235  83.0086  1.00271245 43752
MERAH PUTIH 2           
1 58995U 24035A   25202.50686015 -.00000361  00000+0  00000+0 0  9991
2 58995   0.0145  52.7993 0000949  77.9898 104.1335  1.00271420  5271
TJS-11                  
1 59020U 24037A   25202.78661948 -.00000365  00000+0  00000+0 0  9995
2 59020   4.6709 323.5878 0002991 200.0615 179.4961  1.00275669  5294
HULIANWAN GAOGUI-01 (H*)
1 59069U 24040A   25202.56145233  .00000153  00000+0  00000+0 0  9996
2 59069   0.0395 308.0280 0000987  58.4607 168.8697  1.00272491  4019
EUTELSAT 36D            
1 59346U 24059A   25202.56188566  .00000152  00000+0  00000+0 0  9999
2 59346   0.0275  55.1712 0000319 171.2891 311.2632  1.00270806  4833
PAKSAT-MM1              
1 59915U 24104A   25201.65742262  .00000154  00000+0  00000+0 0  9992
2 59915   0.0356 237.3068 0001034 242.7432  93.4659  1.00268243  4204
ASTRA 1P (SES-24)       
1 60086U 24115A   25202.55859231  .00000116  00000+0  00000+0 0  9998
2 60086   0.0806 313.8358 0000649 147.9560  58.0547  1.00269151  3881
GOES 19                 
1 60133U 24119A   25202.43601228 -.00000250  00000+0  00000+0 0  9993
2 60133   0.0181  72.9413 0000577 173.2916 134.9746  1.00270023  3641
ZHONGXING-3A            
1 60179U 24122A   25201.68326156 -.00000313  00000+0  00000+0 0  9997
2 60179   0.0374 205.0414 0003036  15.9543  65.2371  1.00269692  3983
TURKSAT 6A              
1 60233U 24127A   25202.49167635  .00000143  00000+0  00000+0 0  9998
2 60233   0.0570 215.8641 0003002 320.3835 342.2144  1.00272688  3708
HULIANWAN GAOGUI-02 (H*)
1 60327U 24135A   25202.62147711 -.00000176  00000+0  00000+0 0  9996
2 60327   0.0405  96.9490 0000137   4.0518 215.5933  1.00269340  4181
ZHONGXING-4A            
1 60606U 24151A   25202.58298927 -.00000363  00000+0  00000+0 0  9993
2 60606   2.1697 274.4524 0000997 196.7843 156.4030  1.00267863  3438
HULIANWAN GAOGUI-03 (H*)
1 61503U 24181A   25201.61140235 -.00000240  00000+0  00000+0 0  9998
2 61503   0.0193 120.2713 0001182 255.8800  65.4146  1.00267056  3495
DSN-3 (KIRAMEKI-3)      
1 61733U 24198A   25202.61682951 -.00000254  00000+0  00000+0 0  9993
2 61733   0.0203  49.6180 0001131  81.7307 174.3926  1.00269395  2602
KOREASAT 6A             
1 61910U 24206A   25202.50706027 -.00000365  00000+0  00000+0 0  9992
2 61910   0.0296 103.1071 0000851  10.2933 124.6444  1.00271537  2521
OPTUS-X (ADS-01)        
1 62006U 24212A   25202.59883506 -.00000330  00000+0  00000+0 0  9995
2 62006   0.0176  45.7621 0000796 130.2021  83.2239  1.00268447  2445
GSAT-N2 (GSAT-20)       
1 62028U 24214A   25202.56826728 -.00000022  00000+0  00000+0 0  9999
2 62028   0.0643 254.9464 0002750 144.5626 172.5709  1.00271206  2584
SXM-9                   
1 62259U 24234A   25201.60984235 -.00000204  00000+0  00000+0 0  9991
2 62259   0.0177 338.7279 0004600 334.7157 119.5465  1.00269611  2256
TJS-12                  
1 62374U 24246A   25202.51984625 -.00000232  00000+0  00000+0 0  9997
2 62374   1.4638 285.7215 0002206 144.2821 203.1535  1.00273759  2249
SHIJIAN-25 (SJ-25)      
1 62485U 25002A   25202.76368831 -.00000368  00000+0  00000+0 0  9993
2 62485  10.5533  42.2294 0065101 184.2761 114.9967  1.00257571  2051
TJS-14                  
1 62804U 25017A   25202.55841898  .00000114  00000+0  00000+0 0  9998
2 62804   1.5838 285.4102 0002073 294.0490 299.4787  1.00271270  1950
QZS-6 (MICHIBIKI-6)     
1 62876U 25023A   25202.61115461 -.00000237  00000+0  00000+0 0  9998
2 62876   0.0664 308.4149 0001583 177.7742 123.9279  1.00273025  1642
ZHONGXING-10R           
1 63075U 25036A   25202.57749662 -.00000355  00000+0  00000+0 0  9996
2 63075   0.0069 282.6191 0004459 231.5853 103.7827  1.00268380  1610
TJS-15                  
1 63157U 25045A   25202.79843284 -.00000234  00000+0  00000+0 0  9992
2 63157   0.0856 264.9842 0003429 281.1067 131.4407  1.00267684  1455
TIANLIAN 2-04           
1 63361U 25062A   25202.18447578 -.00000129  00000+0  00000+0 0  9990
2 63361   5.2257 278.9207 0030241 357.8212 168.8741  1.00268733  1281
TJS-16                  
1 63397U 25064A   25202.76221185 -.00000183  00000+0  00000+0 0  9999
2 63397   0.2454  76.8081 0002601  91.2353 198.6180  1.00270990  1379
TJS-17                  
1 63524U 25073A   25202.76221191 -.00000180  00000+0  00000+0 0  9995
2 63524   0.2085  81.2233 0002549  90.1568 195.5249  1.00273679  1185
TIANLIAN 2-05           
1 63662U 25084A   25202.63553939  .00000127  00000+0  00000+0 0  9994
2 63662   5.2893 283.4861 0000804 197.8896  67.4653  1.00266544  1060
